STARLINK-33659          
1 63445U 25069N   26191.83335647 -.00009097  00000+0 -26556-3 0  9995
2 63445  53.1578 282.8597 0001280  90.1391 343.2793 15.33552173  5740
STARLINK-33746          
1 63446U 25069P   26191.79996507  .00023795  00000+0  71336-3 0  9994
2 63446  53.1601 284.9382 0000639  54.6976 305.4086 15.34390677 72282
STARLINK-33799          
1 63447U 25069Q   26191.76090530  .00012887  00000+0  44642-3 0  9993
2 63447  53.1594 291.0979 0003194 155.0346 205.0809 15.30203416 72133
STARLINK-33797          
1 63448U 25069R   26191.75165345  .00015016  00000+0  45461-3 0  9997
2 63448  53.1580 285.3455 0003619 163.6872 196.4248 15.34400195 72266
STARLINK-33798          
1 63449U 25069S   26191.75376166  .00024782  00000+0  74235-3 0  9994
2 63449  53.1565 285.3515 0001329 122.7077 237.4053 15.34392044 72056
STARLINK-33736          
1 63450U 25069T   26191.79365223  .00029821  00000+0  88988-3 0  9991
2 63450  53.1585 284.8976 0001007  95.2977 264.8140 15.34411804 72283
STARLINK-33740          
1 63451U 25069U   26191.25275467  .00017718  00000+0  51763-3 0  9996
2 63451  53.1603 285.7825 0001356  64.4160 295.6983 15.35399594 72163
STARLINK-33763          
1 63452U 25069V   26191.80838343  .00023225  00000+0  69676-3 0  9998
2 63452  53.1578 284.9802 0001226  62.1675 297.9452 15.34382125 72339
STARLINK-33784          
1 63453U 25069W   26191.69454410  .00002530  00000+0  97577-4 0  9993
2 63453  53.1590 291.3901 0000448  99.7591 260.3460 15.30170589 72231
STARLINK-33768          
1 63454U 25069X   26191.74535206  .00015604  00000+0  47229-3 0  9997
2 63454  53.1581 285.3012 0001342  45.4367 314.6745 15.34379838 72311
STARLINK-33761          
1 63455U 25069Y   26191.72640259  .00017962  00000+0  54129-3 0  9997
2 63455  53.1591 285.1774 0004014 157.3182 202.7998 15.34405931 72325
STARLINK-33737          
1 63456U 25069Z   26191.79575882  .00022634  00000+0  67913-3 0  9991
2 63456  53.1601 284.8953 0001328  52.0375 308.0748 15.34394435 72221
STARLINK-33795          
1 63457U 25069AA  26191.74955998  .00019638  00000+0  59098-3 0  9992
2 63457  53.1568 285.3272 0001262  86.7738 273.3409 15.34392128 72212
STARLINK-33756          
1 63458U 25069AB  26191.73903433  .00027110  00000+0  81047-3 0  9992
2 63458  53.1581 285.2500 0001133  98.0425 262.0706 15.34404597 72328
STARLINK-33780          
1 63459U 25069AC  26191.74744948  .00006134  00000+0  19260-3 0  9999
2 63459  53.1585 285.3088 0001920 158.1748 201.9337 15.34389111 72219
STARLINK-33679          
1 63460U 25070A   26191.29222433  .00019005  00000+0  69810-3 0  9990
2 63460  43.0010 287.7235 0001031 261.1070  98.9665 15.27592824 71720
STARLINK-33706          
1 63461U 25070B   26191.33336806 -.00003279  00000+0 -10968-3 0  9994
2 63461  43.0008 287.5109 0001443 263.2195 302.1771 15.27579080  5874
STARLINK-33691          
1 63462U 25070C   26191.31005683  .00015566  00000+0  57370-3 0  9997
2 63462  42.9957 286.9536 0001222 159.8869 200.2031 15.27596605 71687
STARLINK-33696          
1 63463U 25070D   26191.33575580  .00009464  00000+0  35291-3 0  9996
2 63463  42.9951 287.1539 0001916 274.4526  85.6107 15.27586970 71731
STARLINK-33701          
1 63464U 25070E   26191.29991509  .00010145  00000+0  37742-3 0  9996
2 63464  42.9987 287.7441 0004470 145.1647 214.9498 15.27597375 71725
STARLINK-33685          
1 63465U 25070F   26191.28193478  .00023501  00000+0  86114-3 0  9992
2 63465  43.0024 287.6163 0001504 244.7299 115.3396 15.27567029 71728
STARLINK-33654          
1 63466U 25070G   26191.33703693  .00011474  00000+0  42556-3 0  9993
2 63466  42.9937 287.1547 0002567 177.4388 182.6477 15.27600605 71738
STARLINK-33697          
1 63467U 25070H   26190.22805177  .00022225  00000+0  81369-3 0  9992
2 63467  43.0003 293.4775 0001371 254.8042 105.2658 15.27621386 71569
STARLINK-33720          
1 63468U 25070J   26191.27550614  .00019073  00000+0  70021-3 0  9992
2 63468  43.0006 287.5642 0001986 279.8285  80.2342 15.27608113 71721
STARLINK-33587          
1 63469U 25070K   26190.60622235  .00014055  00000+0  51885-3 0  9990
2 63469  43.0027 291.1372 0001465 269.4267  90.6417 15.27608289 71624
STARLINK-33637          
1 63470U 25070L   26191.30378082  .00014529  00000+0  53632-3 0  9996
2 63470  43.0007 287.7737 0000977 235.9929 124.0830 15.27588961 71726
STARLINK-33744          
1 63471U 25070M   26191.35374300  .00020056  00000+0  73598-3 0  9996
2 63471  42.9921 287.2751 0002288 178.7755 181.3102 15.27594901 71739
STARLINK-33766          
1 63472U 25070N   26191.33336806 -.00002339  00000+0 -75506-4 0  9992
2 63472  43.0008 287.5253 0001440 260.6367 297.6945 15.27575853  5870
STARLINK-33765          
1 63473U 25070P   26191.73707160  .00011096  00000+0  41213-3 0  9997
2 63473  42.9996 285.0079 0001905 287.3362  72.7281 15.27580976 71792
STARLINK-33735          
1 63474U 25070Q   26191.58829617  .00015795  00000+0  58182-3 0  9996
2 63474  42.9897 285.5829 0003306 160.3673 199.7306 15.27603108 71772
