OBJECT_NAME,OBJECT_ID,EPOCH,MEAN_MOTION,ECCENTRICITY,INCLINATION,RA_OF_ASC_NODE,ARG_OF_PERICENTER,MEAN_ANOMALY,EPHEMERIS_TYPE,CLASSIFICATION_TYPE,NORAD_CAT_ID,ELEMENT_SET_NO,REV_AT_EPOCH,BSTAR,MEAN_MOTION_DOT,MEAN_MOTION_DDOT
STARLINK-33659,2025-069N,2026-07-10T20:00:01.999008,15.33552173,.000128,53.1578,282.8597,90.1391,343.2793,0,U,63445,999,574,-.26556E-3,-.9097E-4,0
STARLINK-33746,2025-069P,2026-07-10T19:11:56.982048,15.34390677,.0000639,53.1601,284.9382,54.6976,305.4086,0,U,63446,999,7228,.71336E-3,.23795E-3,0
STARLINK-33799,2025-069Q,2026-07-10T18:15:42.217920,15.30203416,.0003194,53.1594,291.0979,155.0346,205.0809,0,U,63447,999,7213,.44642E-3,.12887E-3,0
STARLINK-33797,2025-069R,2026-07-10T18:02:22.858080,15.34400195,.0003619,53.1580,285.3455,163.6872,196.4248,0,U,63448,999,7226,.45461E-3,.15016E-3,0
STARLINK-33798,2025-069S,2026-07-10T18:05:25.007424,15.34392044,.0001329,53.1565,285.3515,122.7077,237.4053,0,U,63449,999,7205,.74235E-3,.24782E-3,0
STARLINK-33736,2025-069T,2026-07-10T19:02:51.552672,15.34411804,.0001007,53.1585,284.8976,95.2977,264.8140,0,U,63450,999,7228,.88988E-3,.29821E-3,0
STARLINK-33740,2025-069U,2026-07-10T06:03:58.003488,15.35399594,.00013569,53.1603,285.7825,64.4160,295.6983,0,U,63451,999,7216,.517635E-3,.17718E-3,0
STARLINK-33763,2025-069V,2026-07-10T19:24:04.328352,15.34382125,.0001226,53.1578,284.9802,62.1675,297.9452,0,U,63452,999,7233,.69676E-3,.23225E-3,0
STARLINK-33784,2025-069W,2026-07-10T16:40:08.610240,15.30170589,.0000448,53.1590,291.3901,99.7591,260.3460,0,U,63453,999,7223,.97577E-4,.253E-4,0
STARLINK-33768,2025-069X,2026-07-10T17:53:18.417984,15.34379838,.0001342,53.1581,285.3012,45.4367,314.6745,0,U,63454,999,7231,.47229E-3,.15604E-3,0
STARLINK-33761,2025-069Y,2026-07-10T17:26:01.183776,15.34405931,.0004014,53.1591,285.1774,157.3182,202.7998,0,U,63455,999,7232,.54129E-3,.17962E-3,0
STARLINK-33737,2025-069Z,2026-07-10T19:05:53.562048,15.34394435,.0001328,53.1601,284.8953,52.0375,308.0748,0,U,63456,999,7222,.67913E-3,.22634E-3,0
STARLINK-33795,2025-069AA,2026-07-10T17:59:21.982272,15.34392128,.0001262,53.1568,285.3272,86.7738,273.3409,0,U,63457,999,7221,.59098E-3,.19638E-3,0
STARLINK-33756,2025-069AB,2026-07-10T17:44:12.566112,15.34404597,.0001133,53.1581,285.2500,98.0425,262.0706,0,U,63458,999,7232,.81047E-3,.2711E-3,0
STARLINK-33780,2025-069AC,2026-07-10T17:56:19.635072,15.34389111,.000192,53.1585,285.3088,158.1748,201.9337,0,U,63459,999,7221,.1926E-3,.6134E-4,0
STARLINK-33679,2025-070A,2026-07-10T07:00:48.182112,15.27592824,.00010316,43.0010,287.7235,261.1070,98.9665,0,U,63460,999,7172,.69809805E-3,.19005E-3,0
STARLINK-33706,2025-070B,2026-07-10T08:00:03.000384,15.27579080,.00014436,43.0008,287.5109,263.2195,302.1771,0,U,63461,999,587,-.10968303E-3,-.3279E-4,0
STARLINK-33691,2025-070C,2026-07-10T07:26:28.910112,15.27596605,.00012226,42.9957,286.9536,159.8869,200.2031,0,U,63462,999,7168,.57369777E-3,.15566E-3,0
STARLINK-33696,2025-070D,2026-07-10T08:03:29.301120,15.27586970,.00019165,42.9951,287.1539,274.4526,85.6107,0,U,63463,999,7173,.35291292E-3,.9464E-4,0
STARLINK-33701,2025-070E,2026-07-10T07:11:52.663776,15.27597375,.00044704,42.9987,287.7441,145.1647,214.9498,0,U,63464,999,7172,.37742311E-3,.10145E-3,0
STARLINK-33685,2025-070F,2026-07-10T06:45:59.164992,15.27567029,.00015046,43.0024,287.6163,244.7299,115.3396,0,U,63465,999,7172,.86113888E-3,.23501E-3,0
STARLINK-33654,2025-070G,2026-07-10T08:05:19.990752,15.27600605,.0002567,42.9937,287.1547,177.4388,182.6477,0,U,63466,999,7173,.42555682E-3,.11474E-3,0
STARLINK-33697,2025-070H,2026-07-09T05:28:23.672928,15.27621386,.00013711,43.0003,293.4775,254.8042,105.2658,0,U,63467,999,7156,.81368615E-3,.22225E-3,0
STARLINK-33720,2025-070J,2026-07-10T06:36:43.730496,15.27608113,.00019866,43.0006,287.5642,279.8285,80.2342,0,U,63468,999,7172,.70020783E-3,.19073E-3,0
STARLINK-33587,2025-070K,2026-07-09T14:32:57.611040,15.27608289,.0001465,43.0027,291.1372,269.4267,90.6417,0,U,63469,999,7162,.51885444E-3,.14055E-3,0
STARLINK-33637,2025-070L,2026-07-10T07:17:26.662848,15.27588961,.00009771,43.0007,287.7737,235.9929,124.0830,0,U,63470,999,7172,.53632193E-3,.14529E-3,0
STARLINK-33744,2025-070M,2026-07-10T08:29:23.395200,15.27594901,.00022889,42.9921,287.2751,178.7755,181.3102,0,U,63471,999,7173,.73598033E-3,.20056E-3,0
STARLINK-33766,2025-070N,2026-07-10T08:00:03.000384,15.27575853,.00014407,43.0008,287.5253,260.6367,297.6945,0,U,63472,999,587,-.75506114E-4,-.2339E-4,0
STARLINK-33765,2025-070P,2026-07-10T17:41:22.986240,15.27580976,.0001905,42.9996,285.0079,287.3362,72.7281,0,U,63473,999,7179,.41213E-3,.11096E-3,0
STARLINK-33735,2025-070Q,2026-07-10T14:07:08.789088,15.27603108,.0003306,42.9897,285.5829,160.3673,199.7306,0,U,63474,999,7177,.58182E-3,.15795E-3,0
